NORAD_CAT_ID,OBJECT_NAME,OBJECT_TYPE,EPOCH,MEAN_MOTION,ECCENTRICITY,INCLINATION,RA_OF_ASC_NODE,ARG_OF_PERICENTER,MEAN_ANOMALY,BSTAR,MEAN_MOTION_DOT,MEAN_MOTION_DDOT,TLE_LINE0,TLE_LINE1,TLE_LINE2,SEMIMAJOR_AXIS,PERIOD,APOGEE,PERIGEE,DECAYED
52331.0,STARLINK-3889,PAYLOAD,2022-07-03 00:00:00,15.08875831,0.0002038,53.2153,130.1588,48.7728,57.5008,-0.0015258,-0.00024514,0.0,0 STARLINK-3889,1 52331U 22045A   22184.00001157 -.00024514  00000-0 -15258-2 0  9999,2 52331  53.2153 130.1588 0002038  48.7728  57.5008 15.08875831 12486,6917.771,95.435,541.0459999999998,538.226,0.0
52331.0,STARLINK-3889,PAYLOAD,2022-07-03 14:00:01,15.08872029,0.0001991,53.2154,127.5395,46.4101,350.2109,-0.0031466,-0.00050063,0.0,0 STARLINK-3889,1 52331U 22045A   22184.58334491 -.00050063  00000-0 -31466-2 0  9999,2 52331  53.2154 127.5395 0001991  46.4101 350.2109 15.08872029  1300,6917.781999999997,95.436,541.025,538.27,0.0
52331.0,STARLINK-3889,PAYLOAD,2022-07-03 22:00:00,15.08865715,0.0001955,53.2157,126.0432,47.2453,0.9779,-0.004093,-0.00064889,0.0,0 STARLINK-3889,1 52331U 22045A   22184.91667824 -.00064889  00000-0 -40930-2 0  9992,2 52331  53.2157 126.0432 0001955  47.2453   0.9779 15.08865715  1304,6917.802,95.436,541.019,538.314,0.0
52331.0,STARLINK-3889,PAYLOAD,2022-07-04 06:00:00,15.08793248,0.0002098,53.2156,124.5484,41.5797,18.247,0.0026859,0.00042663,0.0,0 STARLINK-3889,1 52331U 22045A   22185.25001157  .00042663  00000-0  26859-2 0  9999,2 52331  53.2156 124.5484 0002098  41.5797  18.2470 15.08793248 12673,6918.023,95.441,541.34,538.437,0.0
52331.0,STARLINK-3889,PAYLOAD,2022-07-04 14:00:01,15.08818257,0.0001953,53.2158,123.0503,44.9682,26.4221,0.00010959,1.455e-05,0.0,0 STARLINK-3889,1 52331U 22045A   22185.58334491  .00001455  00000-0  10959-3 0  9994,2 52331  53.2158 123.0503 0001953  44.9682  26.4221 15.08818257  1301,6917.946999999999,95.439,541.163,538.461,0.0
52331.0,STARLINK-3889,PAYLOAD,2022-07-04 22:00:00,15.08844436,0.0001986,53.2159,121.5541,47.486,35.4728,-0.00087193,-0.0001414,0.0,0 STARLINK-3889,1 52331U 22045A   22185.91667824 -.00014140  00000-0 -87193-3 0  9991,2 52331  53.2159 121.5541 0001986  47.4860  35.4728 15.08844436 12772,6917.8669999999975,95.437,541.106,538.3580000000002,0.0
52331.0,STARLINK-3889,PAYLOAD,2022-07-05 14:00:01,15.08836692,0.0001982,53.2159,118.561,47.258,58.8916,0.00085993,0.00013423,0.0,0 STARLINK-3889,1 52331U 22045A   22186.58334491  .00013423  00000-0  85993-3 0  9993,2 52331  53.2159 118.5610 0001982  47.2580  58.8916 15.08836692  1308,6917.891,95.438,541.127,538.384,0.0
52331.0,STARLINK-3889,PAYLOAD,2022-07-05 22:00:00,15.08862877,0.0002028,53.2161,117.0649,49.2742,68.4625,-0.0012504,-0.00020146,0.0,0 STARLINK-3889,1 52331U 22045A   22186.91667824 -.00020146  00000-0 -12504-2 0  9998,2 52331  53.2161 117.0649 0002028  49.2742  68.4625 15.08862877 12929,6917.81,95.436,541.078,538.273,0.0
52331.0,STARLINK-3889,PAYLOAD,2022-07-06 14:00:01,15.08819114,0.0001908,53.2158,114.0716,47.3102,93.6516,0.0012102,0.00019014,0.0,0 STARLINK-3889,1 52331U 22045A   22187.58334491  .00019014  00000-0  12102-2 0  9997,2 52331  53.2158 114.0716 0001908  47.3102  93.6516 15.08819114  1307,6917.944,95.439,541.129,538.489,0.0
52331.0,STARLINK-3889,PAYLOAD,2022-07-06 18:08:51,15.08833421,0.0002066,53.2168,113.2961,48.4045,311.7124,8.764600000000001e-05,1.107e-05,0.0,0 STARLINK-3889,1 52331U 22045A   22187.75615162  .00001107  00000-0  87646-4 0  9994,2 52331  53.2168 113.2961 0002066  48.4045 311.7124 15.08833421 13056,6917.9,95.438,541.195,538.336,0.0
52331.0,STARLINK-3889,PAYLOAD,2022-07-07 14:00:01,15.08830422,0.0001917,53.2154,109.5822,50.1637,125.5728,0.0016973,0.00026821,0.0,0 STARLINK-3889,1 52331U 22045A   22188.58334491  .00026821  00000-0  16973-2 0  9992,2 52331  53.2154 109.5822 0001917  50.1637 125.5728 15.08830422 13178,6917.91,95.438,541.101,538.4490000000002,0.0
52331.0,STARLINK-3889,PAYLOAD,2022-07-07 22:00:00,15.08865726,0.0001979,53.2156,108.0865,51.7511,135.5771,-0.0014978,-0.00024064,0.0,0 STARLINK-3889,1 52331U 22045A   22188.91667824 -.00024064  00000-0 -14978-2 0  9990,2 52331  53.2156 108.0865 0001979  51.7511 135.5771 15.08865726  1303,6917.802,95.436,541.036,538.298,0.0
52331.0,STARLINK-3889,PAYLOAD,2022-07-08 14:00:01,15.0885202,0.0001857,53.2163,105.0878,47.7907,162.7794,-0.0075051999999999,-0.00117827,0.0,0 STARLINK-3889,1 52331U 22045A   22189.58334491 -.00117827  00000-0 -75052-2 0  9995,2 52331  53.2163 105.0878 0001857  47.7907 162.7794 15.08852020  1301,6917.844,95.437,540.993,538.424,0.0
52331.0,STARLINK-3889,PAYLOAD,2022-07-08 22:00:01,15.0886736,0.0001773,53.2153,103.5973,48.2604,173.9571,-0.0035206,-0.00055926,0.0,0 STARLINK-3889,1 52331U 22045A   22189.91668981 -.00055926  00000-0 -35206-2 0  9994,2 52331  53.2153 103.5973 0001773  48.2604 173.9571 15.08867360  1306,6917.797,95.436,540.888,538.435,0.0
52331.0,STARLINK-3889,PAYLOAD,2022-07-09 14:00:01,15.08811193,0.0001761,53.2151,100.6036,48.1475,197.1676,0.00067182,0.00010412,0.0,0 STARLINK-3889,1 52331U 22045A   22190.58334491  .00010412  00000-0  67182-3 0  9993,2 52331  53.2151 100.6036 0001761  48.1475 197.1676 15.08811193  1301,6917.968000000003,95.439,541.052,538.615,0.0
52331.0,STARLINK-3889,PAYLOAD,2022-07-09 16:00:00,15.08813416,0.0001776,53.2151,100.2293,50.2813,287.9255,0.00020744,3.013e-05,0.0,0 STARLINK-3889,1 52331U 22045A   22190.66667824  .00003013  00000-0  20744-3 0  9993,2 52331  53.2151 100.2293 0001776  50.2813 287.9255 15.08813416 13481,6917.962,95.439,541.055,538.5980000000002,0.0
52331.0,STARLINK-3889,PAYLOAD,2022-07-09 20:00:01,15.08837312,0.0001802,53.2155,99.4818,49.657,114.3245,-0.00065289,-0.00010663,0.0,0 STARLINK-3889,1 52331U 22045A   22190.83334491 -.00010663  00000-0 -65289-3 0  9997,2 52331  53.2155  99.4818 0001802  49.6570 114.3245 15.08837312  1300,6917.889,95.438,541.0,538.507,0.0
52331.0,STARLINK-3889,PAYLOAD,2022-07-10 14:00:01,15.08818644,0.0001823,53.2156,96.1145,48.8642,231.2002,0.0030597,0.00048716,0.0,0 STARLINK-3889,1 52331U 22045A   22191.58334491  .00048716  00000-0  30597-2 0  9991,2 52331  53.2156  96.1145 0001823  48.8642 231.2002 15.08818644 13627,6917.946,95.439,541.072,538.55,0.0
52331.0,STARLINK-3889,PAYLOAD,2022-07-10 22:00:00,15.08861475,0.0001951,53.2159,94.6193,48.3904,243.2616,-0.0011258,-0.00018171,0.0,0 STARLINK-3889,1 52331U 22045A   22191.91667824 -.00018171  00000-0 -11258-2 0  9994,2 52331  53.2159  94.6193 0001951  48.3904 243.2616 15.08861475  1300,6917.815,95.436,541.029,538.33,0.0
52331.0,STARLINK-3889,PAYLOAD,2022-07-11 06:00:00,15.08865249,0.0001987,53.2158,93.1235,43.4709,259.7937,-0.0017033,-0.00027313,0.0,0 STARLINK-3889,1 52331U 22045A   22192.25001157 -.00027313  00000-0 -17033-2 0  9998,2 52331  53.2158  93.1235 0001987  43.4709 259.7937 15.08865249 13728,6917.803000000001,95.436,541.043,538.294,0.0
52331.0,STARLINK-3889,PAYLOAD,2022-07-11 14:00:01,15.088138,0.0001809,53.2163,91.6254,48.0912,266.7973,0.0034354,0.00054772,0.0,0 STARLINK-3889,1 52331U 22045A   22192.58334491  .00054772  00000-0  34354-2 0  9996,2 52331  53.2163  91.6254 0001809  48.0912 266.7973 15.08813800  1303,6917.96,95.439,541.077,538.5740000000002,0.0
52331.0,STARLINK-3889,PAYLOAD,2022-07-11 22:00:00,15.08869935,0.0001927,53.2166,90.1303,46.2505,280.22,-0.0035682,-0.00056677,0.0,0 STARLINK-3889,1 52331U 22045A   22192.91667824 -.00056677  00000-0 -35682-2 0  9995,2 52331  53.2166  90.1303 0001927  46.2505 280.2200 15.08869935  1308,6917.7890000000025,95.436,540.987,538.321,0.0
52331.0,STARLINK-3889,PAYLOAD,2022-07-12 06:00:00,15.08830738,0.0001954,53.2164,88.6344,41.4378,296.6423,0.00076053,0.00011834,0.0,0 STARLINK-3889,1 52331U 22045A   22193.25001157  .00011834  00000-0  76053-3 0  9996,2 52331  53.2164  88.6344 0001954  41.4378 296.6423 15.08830738 13870,6917.909000000002,95.438,541.125,538.422,0.0
52331.0,STARLINK-3889,PAYLOAD,2022-07-12 14:00:01,15.08821708,0.0001774,53.2168,87.1365,47.8905,301.7976,0.0039656,0.00063361,0.0,0 STARLINK-3889,1 52331U 22045A   22193.58334491  .00063361  00000-0  39656-2 0  9991,2 52331  53.2168  87.1365 0001774  47.8905 301.7976 15.08821708  1300,6917.936,95.439,541.029,538.5740000000002,0.0
52331.0,STARLINK-3889,PAYLOAD,2022-07-12 22:00:00,15.08874807,0.0001895,53.217,85.6415,45.2458,316.0392,-0.0012352,-0.00019912,0.0,0 STARLINK-3889,1 52331U 22045A   22193.91667824 -.00019912  00000-0 -12352-2 0  9996,2 52331  53.2170  85.6415 0001895  45.2458 316.0392 15.08874807  1300,6917.774,95.435,540.95,538.328,0.0
52331.0,STARLINK-3889,PAYLOAD,2022-07-13 14:00:01,15.08803967,0.0001634,53.2169,82.6474,44.7134,339.8180000000001,0.0026923,0.00042778,0.0,0 STARLINK-3889,1 52331U 22045A   22194.58334491  .00042778  00000-0  26923-2 0  9994,2 52331  53.2169  82.6474 0001634  44.7134 339.8180 15.08803967 14082,6917.991,95.44,540.986,538.725,0.0
52331.0,STARLINK-3889,PAYLOAD,2022-07-13 22:00:00,15.08824392,0.0001846,53.217,81.1525,43.9055,352.1943,-0.001984,-0.00031712,0.0,0 STARLINK-3889,1 52331U 22045A   22194.91667824 -.00031712  00000-0 -19840-2 0  9998,2 52331  53.2170  81.1525 0001846  43.9055 352.1943 15.08824392  1304,6917.928000000001,95.439,541.07,538.516,0.0
52331.0,STARLINK-3889,PAYLOAD,2022-07-14 08:00:01,15.08831432,0.0001827,53.2167,79.2817,44.2972,96.2527,-0.0014132,-0.00022704,0.0,0 STARLINK-3889,1 52331U 22045A   22195.33334491 -.00022704  00000-0 -14132-2 0  9996,2 52331  53.2167  79.2817 0001827  44.2972  96.2527 15.08831432 14191,6917.906999999997,95.438,541.035,538.508,0.0
52331.0,STARLINK-3889,PAYLOAD,2022-07-14 14:00:01,15.08797839,0.0001701,53.2166,78.1584,48.9494,10.2851,0.0033993,0.00054165,0.0,0 STARLINK-3889,1 52331U 22045A   22195.58334491  .00054165  00000-0  33993-2 0  9993,2 52331  53.2166  78.1584 0001701  48.9494  10.2851 15.08797839  1307,6918.009,95.44,541.0509999999998,538.698,0.0
